{
  "type": "FeatureCollection",
  "features": [
    {
      "type": "Feature",
      "properties": {
        "norad_id": 31237,
        "name": "FENGYUN 1C DEB",
        "group": "fengyun-1c-debris",
        "lat": 21.077381905747266,
        "lon": 162.7156777297656,
        "alt_km": 842.8604084337894,
        "timestamp": "2025-12-06T09:34:17.194938+00:00",
        "meta_object_name": "FENGYUN 1C DEB",
        "meta_object_id": "1999-025BLT",
        "meta_epoch": "2025-12-05T22:46:11.639712",
        "meta_mean_motion": 14.31353326,
        "meta_eccentricity": 0.00893849,
        "meta_inclination": 98.4527,
        "meta_ra_of_asc_node": 338.9921,
        "meta_arg_of_pericenter": 9.0558,
        "meta_mean_anomaly": 351.2212,
        "meta_ephemeris_type": 0,
        "meta_classification_type": "U",
        "meta_norad_cat_id": 31237,
        "meta_element_set_no": 999,
        "meta_rev_at_epoch": 97169,
        "meta_bstar": 0.0010678127,
        "meta_mean_motion_dot": 2.914e-05,
        "meta_mean_motion_ddot": 0,
        "tle_line1": "1 31237U 99025BLT 25339.94874583  .00002914  00000+0  10678-2 0  9990",
        "tle_line2": "2 31237  98.4527 338.9921 0089384   9.0558 351.2212 14.31353326971696"
      },
      "geometry": {
        "type": "Point",
        "coordinates": [
          162.7156777297656,
          21.077381905747266
        ]
      }
    },
    {
      "type": "Feature",
      "properties": {
        "norad_id": 31239,
        "name": "FENGYUN 1C DEB",
        "group": "fengyun-1c-debris",
        "lat": 57.638340959315855,
        "lon": 169.59049868418495,
        "alt_km": 857.2498657002152,
        "timestamp": "2025-12-06T09:34:17.194948+00:00",
        "meta_object_name": "FENGYUN 1C DEB",
        "meta_object_id": "1999-025BLV",
        "meta_epoch": "2025-12-05T11:34:21.800064",
        "meta_mean_motion": 14.09846698,
        "meta_eccentricity": 0.00489503,
        "meta_inclination": 98.7584,
        "meta_ra_of_asc_node": 334.6183,
        "meta_arg_of_pericenter": 218.863,
        "meta_mean_anomaly": 293.2839,
        "meta_ephemeris_type": 0,
        "meta_classification_type": "U",
        "meta_norad_cat_id": 31239,
        "meta_element_set_no": 999,
        "meta_rev_at_epoch": 95909,
        "meta_bstar": 0.00055437682,
        "meta_mean_motion_dot": 9.43e-06,
        "meta_mean_motion_ddot": 0,
        "tle_line1": "1 31239U 99025BLV 25339.48219676  .00000943  00000+0  55438-3 0  9991",
        "tle_line2": "2 31239  98.7584 334.6183 0048950 218.8630 293.2839 14.09846698959096"
      },
      "geometry": {
        "type": "Point",
        "coordinates": [
          169.59049868418495,
          57.638340959315855
        ]
      }
    },
    {
      "type": "Feature",
      "properties": {
        "norad_id": 31241,
        "name": "FENGYUN 1C DEB",
        "group": "fengyun-1c-debris",
        "lat": -17.076970543976497,
        "lon": -56.12612844085259,
        "alt_km": 720.2186935329282,
        "timestamp": "2025-12-06T09:34:17.194957+00:00",
        "meta_object_name": "FENGYUN 1C DEB",
        "meta_object_id": "1999-025BLX",
        "meta_epoch": "2025-12-04T16:35:45.444480",
        "meta_mean_motion": 14.38642671,
        "meta_eccentricity": 0.00666643,
        "meta_inclination": 99.2339,
        "meta_ra_of_asc_node": 124.9029,
        "meta_arg_of_pericenter": 204.4614,
        "meta_mean_anomaly": 155.3403,
        "meta_ephemeris_type": 0,
        "meta_classification_type": "U",
        "meta_norad_cat_id": 31241,
        "meta_element_set_no": 999,
        "meta_rev_at_epoch": 97575,
        "meta_bstar": 0.00143606,
        "meta_mean_motion_dot": 4.467e-05,
        "meta_mean_motion_ddot": 0,
        "tle_line1": "1 31241U 99025BLX 25338.69149820  .00004467  00000+0  14361-2 0  9993",
        "tle_line2": "2 31241  99.2339 124.9029 0066664 204.4614 155.3403 14.38642671975750"
      },
      "geometry": {
        "type": "Point",
        "coordinates": [
          -56.12612844085259,
          -17.076970543976497
        ]
      }
    },
    {
      "type": "Feature",
      "properties": {
        "norad_id": 31243,
        "name": "FENGYUN 1C DEB",
        "group": "fengyun-1c-debris",
        "lat": 59.44919403405212,
        "lon": -144.0105060784556,
        "alt_km": 844.0553991112283,
        "timestamp": "2025-12-06T09:34:17.194968+00:00",
        "meta_object_name": "FENGYUN 1C DEB",
        "meta_object_id": "1999-025BLZ",
        "meta_epoch": "2025-12-05T09:06:39.703680",
        "meta_mean_motion": 14.07139979,
        "meta_eccentricity": 0.00658826,
        "meta_inclination": 98.7505,
        "meta_ra_of_asc_node": 19.8768,
        "meta_arg_of_pericenter": 188.6996,
        "meta_mean_anomaly": 171.3037,
        "meta_ephemeris_type": 0,
        "meta_classification_type": "U",
        "meta_norad_cat_id": 31243,
        "meta_element_set_no": 999,
        "meta_rev_at_epoch": 69204,
        "meta_bstar": 0.0012570581,
        "meta_mean_motion_dot": 2.104e-05,
        "meta_mean_motion_ddot": 0,
        "tle_line1": "1 31243U 99025BLZ 25339.37962620  .00002104  00000+0  12571-2 0  9999",
        "tle_line2": "2 31243  98.7505  19.8768 0065882 188.6996 171.3037 14.07139979692047"
      },
      "geometry": {
        "type": "Point",
        "coordinates": [
          -144.0105060784556,
          59.44919403405212
        ]
      }
    },
    {
      "type": "Feature",
      "properties": {
        "norad_id": 31244,
        "name": "FENGYUN 1C DEB",
        "group": "fengyun-1c-debris",
        "lat": 16.143053705652843,
        "lon": -133.32972760181093,
        "alt_km": 807.7304087108332,
        "timestamp": "2025-12-06T09:34:17.194978+00:00",
        "meta_object_name": "FENGYUN 1C DEB",
        "meta_object_id": "1999-025BMA",
        "meta_epoch": "2025-11-29T11:08:59.157312",
        "meta_mean_motion": 14.06218558,
        "meta_eccentricity": 0.01023846,
        "meta_inclination": 99.0353,
        "meta_ra_of_asc_node": 37.1115,
        "meta_arg_of_pericenter": 211.8178,
        "meta_mean_anomaly": 147.6779,
        "meta_ephemeris_type": 0,
        "meta_classification_type": "U",
        "meta_norad_cat_id": 31244,
        "meta_element_set_no": 999,
        "meta_rev_at_epoch": 57453,
        "meta_bstar": 0.00052742349,
        "meta_mean_motion_dot": 8.65e-06,
        "meta_mean_motion_ddot": 0,
        "tle_line1": "1 31244U 99025BMA 25333.46457358  .00000865  00000+0  52742-3 0  9998",
        "tle_line2": "2 31244  99.0353  37.1115 0102384 211.8178 147.6779 14.06218558574534"
      },
      "geometry": {
        "type": "Point",
        "coordinates": [
          -133.32972760181093,
          16.143053705652843
        ]
      }
    },
    {
      "type": "Feature",
      "properties": {
        "norad_id": 31247,
        "name": "FENGYUN 1C DEB",
        "group": "fengyun-1c-debris",
        "lat": 56.781169805599404,
        "lon": 62.970434899814144,
        "alt_km": 839.0748522356607,
        "timestamp": "2025-12-06T09:34:17.194987+00:00",
        "meta_object_name": "FENGYUN 1C DEB",
        "meta_object_id": "1999-025BMD",
        "meta_epoch": "2025-12-04T16:15:04.494240",
        "meta_mean_motion": 14.05083415,
        "meta_eccentricity": 0.0058704,
        "meta_inclination": 99.3657,
        "meta_ra_of_asc_node": 226.5966,
        "meta_arg_of_pericenter": 84.4235,
        "meta_mean_anomaly": 333.0455,
        "meta_ephemeris_type": 0,
        "meta_classification_type": "U",
        "meta_norad_cat_id": 31247,
        "meta_element_set_no": 999,
        "meta_rev_at_epoch": 95408,
        "meta_bstar": 0.0019039,
        "meta_mean_motion_dot": 3.071e-05,
        "meta_mean_motion_ddot": 0,
        "tle_line1": "1 31247U 99025BMD 25338.67713535  .00003071  00000+0  19039-2 0  9994",
        "tle_line2": "2 31247  99.3657 226.5966 0058704  84.4235 333.0455 14.05083415954084"
      },
      "geometry": {
        "type": "Point",
        "coordinates": [
          62.970434899814144,
          56.781169805599404
        ]
      }
    },
    {
      "type": "Feature",
      "properties": {
        "norad_id": 31248,
        "name": "FENGYUN 1C DEB",
        "group": "fengyun-1c-debris",
        "lat": -72.28153659774733,
        "lon": -172.8713332453838,
        "alt_km": 903.3172751663669,
        "timestamp": "2025-12-06T09:34:17.194997+00:00",
        "meta_object_name": "FENGYUN 1C DEB",
        "meta_object_id": "1999-025BME",
        "meta_epoch": "2025-12-02T02:45:39.580416",
        "meta_mean_motion": 13.92758198,
        "meta_eccentricity": 0.0109757,
        "meta_inclination": 99.2654,
        "meta_ra_of_asc_node": 33.5687,
        "meta_arg_of_pericenter": 340.39,
        "meta_mean_anomaly": 48.6423,
        "meta_ephemeris_type": 0,
        "meta_classification_type": "U",
        "meta_norad_cat_id": 31248,
        "meta_element_set_no": 999,
        "meta_rev_at_epoch": 94676,
        "meta_bstar": 0.00064820906,
        "meta_mean_motion_dot": 8.36e-06,
        "meta_mean_motion_ddot": 0,
        "tle_line1": "1 31248U 99025BME 25336.11504144  .00000836  00000+0  64821-3 0  9992",
        "tle_line2": "2 31248  99.2654  33.5687 0109757 340.3900  48.6423 13.92758198946767"
      },
      "geometry": {
        "type": "Point",
        "coordinates": [
          -172.8713332453838,
          -72.28153659774733
        ]
      }
    }
  ]
}